start=new Date('2022-02-13T00:00:00.000Z').valueOf();
sats=[{"MEAN_MOTION_DDOT":"0.0000000000000","OBJECT_ID":"2021-125AZ","BSTAR":"0.00141110000000","RA_OF_ASC_NODE":"86.4837","COUNTRY_CODE":"US","OBJECT_TYPE":"PAYLOAD","MEAN_ELEMENT_THEORY":"SGP4","RCS_SIZE":"LARGE","GP_ID":"195834176","MEAN_MOTION_DOT":"0.00200598","NORAD_CAT_ID":"50203","DECAY_DATE":null,"ECCENTRICITY":"0.00029790","TLE_LINE1":"1 50203U 21125AZ  22043.91667824  .00200598  00000-0  14111-2 0  9999","PERIAPSIS":"348.298","EPHEMERIS_TYPE":"0","EPOCH":"2022-02-12T22:00:00.999936","FILE":"3299059","CLASSIFICATION_TYPE":"U","ARG_OF_PERICENTER":"8.7873","OBJECT_NAME":"STARLINK-3257","APOAPSIS":"352.307","REV_AT_EPOCH":"909","SITE":"AFWTR","INCLINATION":"53.2176","MEAN_MOTION":"15.73009838","PERIOD":"91.544","ELEMENT_SET_NO":"999","TIME_SYSTEM":"UTC","REF_FRAME":"TEME","LAUNCH_DATE":"2021-12-18","TLE_LINE2":"2 50203  53.2176  86.4837 0002979   8.7873  64.4892 15.73009838  9097","SEMIMAJOR_AXIS":"6728.437","MEAN_ANOMALY":"64.4892","CENTER_NAME":"EARTH"},{"TIME_SYSTEM":"UTC","LAUNCH_DATE":"2021-12-18","REF_FRAME":"TEME","SEMIMAJOR_AXIS":"6728.326","TLE_LINE2":"2 50204  53.2168  86.4591 0003501   4.4846  78.0239 15.73048888  9095","CENTER_NAME":"EARTH","MEAN_ANOMALY":"78.0239","REV_AT_EPOCH":"909","INCLINATION":"53.2168","SITE":"AFWTR","MEAN_MOTION":"15.73048888","PERIOD":"91.542","ELEMENT_SET_NO":"999","FILE":"3299059","CLASSIFICATION_TYPE":"U","ARG_OF_PERICENTER":"4.4846","OBJECT_NAME":"STARLINK-3254","APOAPSIS":"352.547","ECCENTRICITY":"0.00035010","TLE_LINE1":"1 50204U 21125BA  22043.91667824  .00196464  00000-0  13804-2 0  9994","PERIAPSIS":"347.835","EPHEMERIS_TYPE":"0","EPOCH":"2022-02-12T22:00:00.999936","GP_ID":"195833725","RCS_SIZE":"LARGE","MEAN_MOTION_DOT":"0.00196464","NORAD_CAT_ID":"50204","DECAY_DATE":null,"RA_OF_ASC_NODE":"86.4591","COUNTRY_CODE":"US","OBJECT_TYPE":"PAYLOAD","MEAN_ELEMENT_THEORY":"SGP4","OBJECT_ID":"2021-125BA","BSTAR":"0.00138040000000","MEAN_MOTION_DDOT":"0.0000000000000"},{"MEAN_MOTION_DDOT":"0.0000000000000","BSTAR":"0.00114350000000","OBJECT_ID":"2021-125BB","RA_OF_ASC_NODE":"82.8191","OBJECT_TYPE":"PAYLOAD","COUNTRY_CODE":"US","MEAN_ELEMENT_THEORY":"SGP4","MEAN_MOTION_DOT":"0.00161957","GP_ID":"195833724","RCS_SIZE":"LARGE","NORAD_CAT_ID":"50205","DECAY_DATE":null,"ECCENTRICITY":"0.00031950","EPHEMERIS_TYPE":"0","PERIAPSIS":"348.044","TLE_LINE1":"1 50205U 21125BB  22043.91667824  .00161957  00000-0  11435-2 0  9992","EPOCH":"2022-02-12T22:00:00.999936","CLASSIFICATION_TYPE":"U","FILE":"3299059","ARG_OF_PERICENTER":"7.3147","OBJECT_NAME":"STARLINK-3260","APOAPSIS":"352.344","INCLINATION":"53.2132","SITE":"AFWTR","REV_AT_EPOCH":"1176","MEAN_MOTION":"15.73047826","ELEMENT_SET_NO":"999","PERIOD":"91.542","TIME_SYSTEM":"UTC","MEAN_ANOMALY":"35.0322","TLE_LINE2":"2 50205  53.2132  82.8191 0003195   7.3147  35.0322 15.73047826 11762","SEMIMAJOR_AXIS":"6728.329","CENTER_NAME":"EARTH","REF_FRAME":"TEME","LAUNCH_DATE":"2021-12-18"},{"ECCENTRICITY":"0.00031380","EPOCH":"2022-02-12T22:00:00.999936","TLE_LINE1":"1 50206U 21125BC  22043.91667824  .00000628  00000-0  89126-5 0  9995","EPHEMERIS_TYPE":"0","PERIAPSIS":"347.638","CLASSIFICATION_TYPE":"U","FILE":"3299059","APOAPSIS":"351.860","OBJECT_NAME":"STARLINK-3258","ARG_OF_PERICENTER":"15.3667","REV_AT_EPOCH":"1010","INCLINATION":"53.2176","SITE":"AFWTR","PERIOD":"91.533","ELEMENT_SET_NO":"999","MEAN_MOTION":"15.73203963","TIME_SYSTEM":"UTC","REF_FRAME":"TEME","LAUNCH_DATE":"2021-12-18","TLE_LINE2":"2 50206  53.2176  86.4507 0003138  15.3667  63.2305 15.73203963 10102","MEAN_ANOMALY":"63.2305","SEMIMAJOR_AXIS":"6727.884","CENTER_NAME":"EARTH","MEAN_MOTION_DDOT":"0.0000000000000","BSTAR":"0.00000891260000","OBJECT_ID":"2021-125BC","RA_OF_ASC_NODE":"86.4507","MEAN_ELEMENT_THEORY":"SGP4","COUNTRY_CODE":"US","OBJECT_TYPE":"PAYLOAD","GP_ID":"195834172","RCS_SIZE":"LARGE","MEAN_MOTION_DOT":"0.00000628","DECAY_DATE":null,"NORAD_CAT_ID":"50206"},{"INCLINATION":"53.2163","SITE":"AFWTR","REV_AT_EPOCH":"1017","ELEMENT_SET_NO":"999","PERIOD":"91.534","MEAN_MOTION":"15.73190207","TIME_SYSTEM":"UTC","TLE_LINE2":"2 50207  53.2163  86.4776 0003031  15.0774  61.9397 15.73190207 10174","MEAN_ANOMALY":"61.9397","SEMIMAJOR_AXIS":"6727.923","CENTER_NAME":"EARTH","REF_FRAME":"TEME","LAUNCH_DATE":"2021-12-18","ECCENTRICITY":"0.00030310","EPOCH":"2022-02-12T22:00:00.999936","PERIAPSIS":"347.749","EPHEMERIS_TYPE":"0","TLE_LINE1":"1 50207U 21125BD  22043.91667824  .00020491  00000-0  15011-3 0  9996","FILE":"3299059","CLASSIFICATION_TYPE":"U","APOAPSIS":"351.827","ARG_OF_PERICENTER":"15.0774","OBJECT_NAME":"STARLINK-3262","RA_OF_ASC_NODE":"86.4776","MEAN_ELEMENT_THEORY":"SGP4","OBJECT_TYPE":"PAYLOAD","COUNTRY_CODE":"US","MEAN_MOTION_DOT":"0.00020491","RCS_SIZE":"LARGE","GP_ID":"195833727","DECAY_DATE":null,"NORAD_CAT_ID":"50207","MEAN_MOTION_DDOT":"0.0000000000000","OBJECT_ID":"2021-125BD","BSTAR":"0.00015011000000"},{"COUNTRY_CODE":"US","OBJECT_TYPE":"PAYLOAD","MEAN_ELEMENT_THEORY":"SGP4","RA_OF_ASC_NODE":"15.8625","NORAD_CAT_ID":"50803","DECAY_DATE":null,"GP_ID":"195827375","RCS_SIZE":"LARGE","MEAN_MOTION_DOT":"0.00071960","MEAN_MOTION_DDOT":"0.0000000000000","BSTAR":"0.00051411000000","OBJECT_ID":"2022-001A","MEAN_MOTION":"15.73137489","PERIOD":"91.537","ELEMENT_SET_NO":"999","REV_AT_EPOCH":"713","SITE":"AFETR","INCLINATION":"53.2152","REF_FRAME":"TEME","LAUNCH_DATE":"2022-01-06","TLE_LINE2":"2 50803  53.2152  15.8625 0001687  34.6583 109.8719 15.73137489  7138","MEAN_ANOMALY":"109.8719","SEMIMAJOR_AXIS":"6728.073","CENTER_NAME":"EARTH","TIME_SYSTEM":"UTC","TLE_LINE1":"1 50803U 22001A   22043.91667824  .00071960  00000-0  51411-3 0  9993","PERIAPSIS":"348.803","EPHEMERIS_TYPE":"0","EPOCH":"2022-02-12T22:00:00.999936","ECCENTRICITY":"0.00016870","ARG_OF_PERICENTER":"34.6583","OBJECT_NAME":"STARLINK-3321","APOAPSIS":"351.073","CLASSIFICATION_TYPE":"U","FILE":"3298743"},{"MEAN_MOTION_DDOT":"0.0000000000000","OBJECT_ID":"2022-001B","BSTAR":"-0.00037470000000","RA_OF_ASC_NODE":"17.5133","MEAN_ELEMENT_THEORY":"SGP4","COUNTRY_CODE":"US","OBJECT_TYPE":"PAYLOAD","RCS_SIZE":"LARGE","GP_ID":"195796047","MEAN_MOTION_DOT":"-0.00052772","DECAY_DATE":null,"NORAD_CAT_ID":"50804","ECCENTRICITY":"0.00020860","EPOCH":"2022-02-12T14:00:01.000224","TLE_LINE1":"1 50804U 22001B   22043.58334491 -.00052772  00000-0 -37470-3 0  9999","PERIAPSIS":"348.499","EPHEMERIS_TYPE":"0","FILE":"3298392","CLASSIFICATION_TYPE":"U","APOAPSIS":"351.306","ARG_OF_PERICENTER":"20.4625","OBJECT_NAME":"STARLINK-3323","REV_AT_EPOCH":"706","INCLINATION":"53.2156","SITE":"AFETR","PERIOD":"91.536","ELEMENT_SET_NO":"999","MEAN_MOTION":"15.73150018","TIME_SYSTEM":"UTC","LAUNCH_DATE":"2022-01-06","REF_FRAME":"TEME","TLE_LINE2":"2 50804  53.2156  17.5133 0002086  20.4625  35.8301 15.73150018  7060","CENTER_NAME":"EARTH","SEMIMAJOR_AXIS":"6728.038","MEAN_ANOMALY":"35.8301"},{"GP_ID":"195828317","RCS_SIZE":"LARGE","MEAN_MOTION_DOT":"-0.00022669","NORAD_CAT_ID":"50805","DECAY_DATE":null,"RA_OF_ASC_NODE":"15.8623","COUNTRY_CODE":"US","OBJECT_TYPE":"PAYLOAD","MEAN_ELEMENT_THEORY":"SGP4","OBJECT_ID":"2022-001C","BSTAR":"-0.00015758000000","MEAN_MOTION_DDOT":"0.0000000000000","TIME_SYSTEM":"UTC","LAUNCH_DATE":"2022-01-06","REF_FRAME":"TEME","TLE_LINE2":"2 50805  53.2158  15.8623 0001696  38.0377 107.6458 15.73191917  7135","CENTER_NAME":"EARTH","SEMIMAJOR_AXIS":"6727.918","MEAN_ANOMALY":"107.6458","REV_AT_EPOCH":"713","SITE":"AFETR","INCLINATION":"53.2158","MEAN_MOTION":"15.73191917","PERIOD":"91.534","ELEMENT_SET_NO":"999","FILE":"3298787","CLASSIFICATION_TYPE":"U","ARG_OF_PERICENTER":"38.0377","OBJECT_NAME":"STARLINK-3333","APOAPSIS":"350.924","ECCENTRICITY":"0.00016960","TLE_LINE1":"1 50805U 22001C   22043.91667824 -.00022669  00000-0 -15758-3 0  9993","EPHEMERIS_TYPE":"0","PERIAPSIS":"348.642","EPOCH":"2022-02-12T22:00:00.999936"},{"ELEMENT_SET_NO":"999","PERIOD":"91.532","MEAN_MOTION":"15.73213839","SITE":"AFETR","INCLINATION":"53.2166","REV_AT_EPOCH":"713","CENTER_NAME":"EARTH","TLE_LINE2":"2 50806  53.2166  15.8585 0001813  43.8506 102.5694 15.73213839  7135","SEMIMAJOR_AXIS":"6727.856","MEAN_ANOMALY":"102.5694","LAUNCH_DATE":"2022-01-06","REF_FRAME":"TEME","TIME_SYSTEM":"UTC","EPOCH":"2022-02-12T22:00:00.999936","EPHEMERIS_TYPE":"0","PERIAPSIS":"348.501","TLE_LINE1":"1 50806U 22001D   22043.91667824 -.00026507  00000-0 -18491-3 0  9996","ECCENTRICITY":"0.00018130","APOAPSIS":"350.940","ARG_OF_PERICENTER":"43.8506","OBJECT_NAME":"STARLINK-3335","CLASSIFICATION_TYPE":"U","FILE":"3299065","MEAN_ELEMENT_THEORY":"SGP4","OBJECT_TYPE":"PAYLOAD","COUNTRY_CODE":"US","RA_OF_ASC_NODE":"15.8585","DECAY_DATE":null,"NORAD_CAT_ID":"50806","MEAN_MOTION_DOT":"-0.00026507","RCS_SIZE":"LARGE","GP_ID":"195834276","MEAN_MOTION_DDOT":"0.0000000000000","BSTAR":"-0.00018491000000","OBJECT_ID":"2022-001D"},{"ELEMENT_SET_NO":"999","PERIOD":"91.536","MEAN_MOTION":"15.73156310","SITE":"AFETR","INCLINATION":"53.2150","REV_AT_EPOCH":"708","TLE_LINE2":"2 50807  53.2150  17.5040 0001498  30.3802  29.7484 15.73156310  7084","SEMIMAJOR_AXIS":"6728.020","CENTER_NAME":"EARTH","MEAN_ANOMALY":"29.7484","LAUNCH_DATE":"2022-01-06","REF_FRAME":"TEME","TIME_SYSTEM":"UTC","EPOCH":"2022-02-12T14:00:01.000224","EPHEMERIS_TYPE":"0","PERIAPSIS":"348.877","TLE_LINE1":"1 50807U 22001E   22043.58334491 -.00081741  00000-0 -58474-3 0  9997","ECCENTRICITY":"0.00014980","APOAPSIS":"350.893","ARG_OF_PERICENTER":"30.3802","OBJECT_NAME":"STARLINK-3353","FILE":"3298364","CLASSIFICATION_TYPE":"U","MEAN_ELEMENT_THEORY":"SGP4","OBJECT_TYPE":"PAYLOAD","COUNTRY_CODE":"US","RA_OF_ASC_NODE":"17.5040","DECAY_DATE":null,"NORAD_CAT_ID":"50807","MEAN_MOTION_DOT":"-0.00081741","GP_ID":"195795469","RCS_SIZE":"LARGE","MEAN_MOTION_DDOT":"0.0000000000000","OBJECT_ID":"2022-001E","BSTAR":"-0.00058474000000"}];
